OBJECT_NAME,OBJECT_ID,EPOCH,MEAN_MOTION,ECCENTRICITY,INCLINATION,RA_OF_ASC_NODE,ARG_OF_PERICENTER,MEAN_ANOMALY,EPHEMERIS_TYPE,CLASSIFICATION_TYPE,NORAD_CAT_ID,ELEMENT_SET_NO,REV_AT_EPOCH,BSTAR,MEAN_MOTION_DOT,MEAN_MOTION_DDOT
BEIDOU-3S IGSO-1S (C31),2015-019A,2026-06-24T19:23:47.913216,1.00249638,.00389179,49.1794,295.3695,191.3782,167.8940,0,U,40549,999,4114,0,-.178E-5,0
GPS BIIF-10 (PRN 08),2015-033A,2026-06-24T16:47:58.224480,2.00556017,.01151416,53.9765,266.7766,30.2383,330.4597,0,U,40730,999,8014,0,-.52E-6,0
BEIDOU-3S M2S (C58),2015-037A,2026-06-23T05:30:54.874656,1.86231957,.00085699,54.8652,301.8377,258.4474,101.4494,0,U,40748,999,7423,0,-.108E-5,0
BEIDOU-3S M1S (C57),2015-037B,2026-06-24T12:14:42.859392,1.86254971,.00032834,54.8605,301.7817,62.2648,297.7606,0,U,40749,999,7426,0,-.109E-5,0
GSAT0206 (GALILEO 10),2015-045B,2026-06-24T11:54:39.024000,1.70473861,.00016854,54.9433,221.4024,336.0482,24.0274,0,U,40890,999,6716,0,.51E-6,0
BEIDOU-3S IGSO-2S (C56),2015-053A,2026-06-24T16:38:51.779040,1.00257917,.00655185,49.2082,258.6911,192.8467,165.7674,0,U,40938,999,3942,0,-.135E-5,0
GPS BIIF-11 (PRN 10),2015-062A,2026-06-24T18:08:18.604032,2.00567160,.01121119,56.9645,30.5195,231.0101,128.0356,0,U,41019,999,7798,0,-.91E-6,0
GSAT-15 (GAGAN/PRN 139),2015-065A,2026-06-25T04:03:38.815200,1.00271581,.00045767,0.0514,263.9883,171.2303,352.5279,0,U,41028,999,3887,0,-.248E-5,0
GSAT0209 (GALILEO 12),2015-079A,2026-06-24T15:56:45.462912,1.70473674,.00049847,55.8317,101.0568,351.6457,8.3201,0,U,41174,999,6490,0,-.37E-6,0
GSAT0208 (GALILEO 11),2015-079B,2026-06-22T12:55:14.356704,1.70473694,.00048395,55.8290,101.1119,343.6998,16.2634,0,U,41175,999,6528,0,-.27E-6,0
IRNSS-1E,2016-003A,2026-06-24T14:51:21.828096,1.00274996,.00190255,33.2496,59.6425,179.2387,8.5415,0,U,41241,999,3815,0,-.319E-5,0
GPS BIIF-12 (PRN 32),2016-007A,2026-06-23T20:24:02.426112,2.00551374,.00958202,55.5277,89.1954,247.3210,111.6653,0,U,41328,999,7597,0,-.6E-6,0
COSMOS 2514 (751),2016-008A,2026-06-23T20:30:55.305792,2.13102654,.00115514,65.0172,312.7777,198.7083,161.2407,0,U,41330,999,8076,0,-.83E-6,0
BEIDOU-2 IGSO-6 (C13),2016-021A,2026-06-24T02:12:21.652992,1.00259092,.00575384,60.2358,37.9691,231.1257,128.7042,0,U,41434,999,3755,0,-.155E-5,0
IRNSS-1G,2016-027A,2026-06-24T20:00:55.702656,1.00276825,.0006263,5.2145,97.3003,2.7788,242.3958,0,U,41469,999,3725,0,-.329E-5,0
GSAT0211 (GALILEO 14),2016-030A,2026-06-23T20:02:59.831808,1.70474023,.00030565,55.0937,221.5119,321.3377,38.7209,0,U,41549,999,6278,0,.46E-6,0
GSAT0210 (GALILEO 13),2016-030B,2026-06-25T06:22:49.933344,1.70473937,.00086592,55.0912,221.4705,257.5264,102.4642,0,U,41550,999,6280,0,.56E-6,0
BEIDOU-2 G7 (C03),2016-037A,2026-06-25T07:59:32.508960,1.00273076,.00068228,1.7407,69.4043,0.3351,74.1665,0,U,41586,999,697,0,-.345E-5,0
EUTELSAT 117 WEST B (WAAS/PRN 131),2016-038B,2026-06-23T22:24:09.481248,1.00270429,.0000063,0.0091,158.0636,73.8469,259.2281,0,U,41589,999,3673,0,-.5E-7,0
GSAT0207 (GALILEO 15),2016-069A,2026-06-23T04:44:56.137344,1.70473659,.00051341,55.5021,100.9199,331.8808,28.0688,0,U,41859,999,5950,0,-.31E-6,0
GSAT0212 (GALILEO 16),2016-069B,2026-06-23T15:18:34.835616,1.70473709,.00045345,55.5001,100.9027,9.5312,350.4536,0,U,41860,999,5976,0,-.34E-6,0
GSAT0213 (GALILEO 17),2016-069C,2026-06-23T10:02:39.581952,1.70474211,.00046874,55.5022,100.9167,315.0710,44.8679,0,U,41861,999,5962,0,-.32E-6,0
GSAT0214 (GALILEO 18),2016-069D,2026-06-21T19:19:10.755840,1.70473560,.00038497,55.5000,100.9540,321.2487,38.7039,0,U,41862,999,5972,0,-.23E-6,0
SES-15 (WAAS/PRN 133),2017-026A,2026-06-24T12:01:53.251392,1.00268280,.00006599,0.0193,335.4736,95.5096,252.9752,0,U,42709,999,750,0,.68E-6,0
QZS-2 (QZSS/PRN 194),2017-028A,2026-06-24T11:39:17.917056,1.00282000,.07593031,39.4163,243.0474,269.3393,77.0374,0,U,42738,999,769,0,-.157E-5,0
QZS-3 (QZSS/PRN 199),2017-048A,2026-06-25T06:21:31.223808,1.00272790,.00022421,0.0646,151.3246,298.5894,45.9158,0,U,42917,999,3234,0,-.338E-5,0
COSMOS 2522 (752),2017-055A,2026-06-23T16:37:10.805952,2.13066943,.00302696,64.1036,191.6583,259.5847,100.1235,0,U,42939,999,6811,0,.1E-5,0
QZS-4 (QZSS/PRN 195),2017-062A,2026-06-18T08:24:11.162880,1.00250086,.07450188,40.1070,343.4662,271.8091,274.2172,0,U,42965,999,3181,0,-.36E-5,0
BEIDOU-3 M1 (C19),2017-069A,2026-06-23T00:56:57.925248,1.86231304,.00100474,56.6974,62.8909,326.6149,33.3575,0,U,43001,999,5871,0,-.93E-6,0
BEIDOU-3 M2 (C20),2017-069B,2026-06-22T23:28:47.231616,1.86230523,.00089923,56.6963,62.9294,352.6727,7.3499,0,U,43002,999,5870,0,-.93E-6,0
GSAT0215 (GALILEO 19),2017-079A,2026-06-22T21:09:10.560672,1.70474658,.00032211,55.0723,221.3499,264.2586,95.7812,0,U,43055,999,5308,0,.39E-6,0
